ONEWEB-0267             
1 48985U 21060U   24238.57519402  .00000155  00000+0  37094-3 0  9991
2 48985  87.9162   0.3115 0001422 103.1244 257.0046 13.16595560152668
ONEWEB-0268             
1 48986U 21060V   24238.61951513  .00000090  00000+0  20273-3 0  9999
2 48986  87.9160   0.3089 0001673  94.1685 265.9637 13.16595573152931
ONEWEB-0269             
1 48987U 21060W   24238.60052082  .00000018  00000+0  14260-4 0  9992
2 48987  87.9165   0.3401 0001789  96.5302 263.6033 13.16584877152700
ONEWEB-0270             
1 48988U 21060X   24238.84593125 -.00000003  00000+0 -40534-4 0  9996
2 48988  87.9159   0.2712 0001538 116.3367 243.7922 13.16595153154080
ONEWEB-0271             
1 48989U 21060Y   24238.83326599 -.00000054  00000+0 -17569-3 0  9992
2 48989  87.9161   0.2514 0001456 106.8601 253.2689 13.16595014154068
ONEWEB-0272             
1 48990U 21060Z   24238.62743322  .00000102  00000+0  23301-3 0  9991
2 48990  87.9162   0.3217 0001526 102.3934 257.7368 13.16592307152692
ONEWEB-0273             
1 48991U 21060AA  24238.57361126  .00000181  00000+0  44004-3 0  9994
2 48991  87.9162   0.3188 0001764 105.0795 255.0531 13.16595071152660
ONEWEB-0274             
1 48992U 21060AB  24238.59894090  .00000055  00000+0  10912-3 0  9999
2 48992  87.9169   0.3320 0001433  84.9691 275.1603 13.16595867152700
